0 COSMOS 2251 DEB
1 36380U 93036AZH 13287.65950260  .00010066  00000-0  19845-2 0  2237
2 36380 073.9896 037.3814 0039600 226.1544 133.7085 14.62089294218342
0 COSMOS 2251 DEB
1 36380U 93036AZH 13289.98584571  .00010942  00000-0  21578-2 0  2243
2 36380 073.9842 032.9240 0036008 224.4478 135.3716 14.62144740218687
0 COSMOS 2251 DEB
1 36380U 93036AZH 13290.60163260  .00011489  00000-0  22643-2 0  2254
2 36380 073.9821 031.7381 0035997 225.5445 134.3256 14.62163607218770
0 COSMOS 2251 DEB
1 36380U 93036AZH 13291.62791548  .00012201  00000-0  24025-2 0  2263
2 36380 073.9770 029.7681 0035896 222.6219 137.2555 14.62192737218925
0 COSMOS 2251 DEB
1 36380U 93036AZH 13293.61201606  .00013467  00000-0  26493-2 0  2272
2 36380 073.9690 025.9572 0034381 217.2988 142.6564 14.62252325219217
0 COSMOS 2251 DEB
1 36380U 93036AZH 13295.86967759  .00012953  00000-0  25424-2 0  2282
2 36380 073.9749 021.6203 0036737 208.9114 150.9799 14.62307674219547
